NORAD_CAT_ID,OBJECT_NAME,OBJECT_TYPE,EPOCH,MEAN_MOTION,ECCENTRICITY,INCLINATION,RA_OF_ASC_NODE,ARG_OF_PERICENTER,MEAN_ANOMALY,BSTAR,MEAN_MOTION_DOT,MEAN_MOTION_DDOT,TLE_LINE0,TLE_LINE1,TLE_LINE2,SEMIMAJOR_AXIS,PERIOD,APOGEE,PERIGEE,DECAYED
53783.0,STARLINK-4536,PAYLOAD,2024-03-05 17:24:40,15.08836932,0.0001585,53.2185,328.9362,94.1021,266.0152,-2.3059e-05,-6.55e-06,0.0,0 STARLINK-4536,1 53783U 22111L   24065.72546410 -.00000655  00000-0 -23059-4 0  9990,2 53783  53.2185 328.9362 0001585  94.1021 266.0152 15.08836932 82086,6917.89,95.438,540.851,538.658,0.0
53783.0,STARLINK-4536,PAYLOAD,2024-03-05 23:46:12,15.08839312,0.0001607,53.2188,327.7432,102.0261,258.0912,-0.0001362,-2.455e-05,0.0,0 STARLINK-4536,1 53783U 22111L   24065.99042568 -.00002455  00000-0 -13620-3 0  9996,2 53783  53.2188 327.7432 0001607 102.0261 258.0912 15.08839312 82938,6917.882,95.438,540.859,538.636,0.0
53783.0,STARLINK-4536,PAYLOAD,2024-03-06 20:26:13,15.08836166,0.0001536,53.2183,323.8788,98.454,261.6626,-1.4525e-05,-5.19e-06,0.0,0 STARLINK-4536,1 53783U 22111L   24066.85154595 -.00000519  00000-0 -14525-4 0  9991,2 53783  53.2183 323.8788 0001536  98.4540 261.6626 15.08836166 82254,6917.892,95.438,540.82,538.695,0.0
53783.0,STARLINK-4536,PAYLOAD,2024-03-07 02:47:45,15.08843631,0.0001494,53.2182,322.688,99.8133,260.3028,-4.4633e-05,-9.98e-06,0.0,0 STARLINK-4536,1 53783U 22111L   24067.11650245 -.00000998  00000-0 -44633-4 0  9998,2 53783  53.2182 322.6880 0001494  99.8133 260.3028 15.08843631 83101,6917.869,95.437,540.768,538.701,0.0
53783.0,STARLINK-4536,PAYLOAD,2024-03-08 02:38:33,15.08835844,0.0001446,53.2179,318.2266,115.3271,244.7872,0.00016381,2.32e-05,0.0,0 STARLINK-4536,1 53783U 22111L   24068.11010704  .00002320  00000-0  16381-3 0  9996,2 53783  53.2179 318.2266 0001446 115.3271 244.7872 15.08835844 82446,6917.893,95.438,540.758,538.758,0.0
53783.0,STARLINK-4536,PAYLOAD,2024-03-09 08:50:52,15.08843213,0.0001463,53.2185,312.5792,99.7995,260.3162,0.0001238,1.683e-05,0.0,0 STARLINK-4536,1 53783U 22111L   24069.36866685  .00001683  00000-0  12380-3 0  9997,2 53783  53.2185 312.5792 0001463  99.7995 260.3162 15.08843213 82637,6917.871,95.437,540.748,538.723,0.0
53783.0,STARLINK-4536,PAYLOAD,2024-03-10 00:44:44,15.08838057,0.0001066,53.2169,309.6046,95.6338,264.4775,1.3446e-05,-7.4e-07,0.0,0 STARLINK-4536,1 53783U 22111L   24070.03107119 -.00000074  00000-0  13446-4 0  9992,2 53783  53.2169 309.6046 0001066  95.6338 264.4775 15.08838057 82739,6917.886,95.438,540.489,539.014,0.0
53783.0,STARLINK-4536,PAYLOAD,2024-03-10 08:41:39,15.08850553,9.11e-05,53.2173,308.1181,88.4744,271.6353,0.00010539,1.39e-05,0.0,0 STARLINK-4536,1 53783U 22111L   24070.36226029  .00001390  00000-0  10539-3 0  9990,2 53783  53.2173 308.1181 0000911  88.4744 271.6353 15.08850553 82789,6917.848,95.437,540.343,539.083,0.0
53783.0,STARLINK-4536,PAYLOAD,2024-03-10 21:24:46,15.08832458,0.0001075,53.2173,305.7395,86.0859,274.0256,-7.0013e-05,-1.402e-05,0.0,0 STARLINK-4536,1 53783U 22111L   24070.89219959 -.00001402  00000-0 -70013-4 0  9992,2 53783  53.2173 305.7395 0001075  86.0859 274.0256 15.08832458 82864,6917.903,95.438,540.512,539.025,0.0
53783.0,STARLINK-4536,PAYLOAD,2024-03-11 08:32:27,15.08843702,0.0001074,53.2182,303.6582,83.5833,276.5281,3.0637e-05,2e-06,0.0,0 STARLINK-4536,1 53783U 22111L   24071.35587083  .00000200  00000-0  30637-4 0  9991,2 53783  53.2182 303.6582 0001074  83.5833 276.5281 15.08843702 82939,6917.869,95.437,540.477,538.991,0.0
53783.0,STARLINK-4536,PAYLOAD,2024-03-12 21:06:19,15.08840631,0.0001728,53.2156,296.8199,85.2314,274.8876,0.00020564,2.986e-05,0.0,0 STARLINK-4536,1 53783U 22111L   24072.87939440  .00002986  00000-0  20564-3 0  9997,2 53783  53.2156 296.8199 0001728  85.2314 274.8876 15.08840631 83970,6917.878,95.438,540.939,538.548,0.0
53783.0,STARLINK-4536,PAYLOAD,2024-03-13 00:17:06,15.08838018,0.0001343,53.2166,296.2252,88.6545,271.4601,0.00012093,1.637e-05,0.0,0 STARLINK-4536,1 53783U 22111L   24073.01187604  .00001637  00000-0  12093-3 0  9991,2 53783  53.2166 296.2252 0001343  88.6545 271.4601 15.08838018 83189,6917.886,95.438,540.681,538.822,0.0
53783.0,STARLINK-4536,PAYLOAD,2024-03-13 08:14:01,15.0884176,0.0001318,53.2164,294.7384,88.7738,271.3406,0.00011789,1.589e-05,0.0,0 STARLINK-4536,1 53783U 22111L   24073.34307318  .00001589  00000-0  11789-3 0  9990,2 53783  53.2164 294.7384 0001318  88.7738 271.3406 15.08841760 84049,6917.875,95.437,540.652,538.828,0.0
53783.0,STARLINK-4536,PAYLOAD,2024-03-13 20:57:06,15.08845842,0.0002194,53.2144,292.3582,88.1877,271.9366,9.0419e-05,1.151e-05,0.0,0 STARLINK-4536,1 53783U 22111L   24073.87299363  .00001151  00000-0  90419-4 0  9991,2 53783  53.2144 292.3582 0002194  88.1877 271.9366 15.08845842 84127,6917.863,95.437,541.245,538.21,0.0
53783.0,STARLINK-4536,PAYLOAD,2024-03-14 00:07:52,15.08835996,0.0001021,53.2177,291.7621,102.3032,257.8074,0.00016254,2.3e-05,0.0,0 STARLINK-4536,1 53783U 22111L   24074.00547128  .00002300  00000-0  16254-3 0  9993,2 53783  53.2177 291.7621 0001021 102.3032 257.8074 15.08835996 84140,6917.893,95.438,540.464,539.051,0.0
53783.0,STARLINK-4536,PAYLOAD,2024-03-14 20:47:54,15.08823701,0.0001399,53.2191,287.8959,103.7411,256.3737,0.00029567,4.419e-05,0.0,0 STARLINK-4536,1 53783U 22111L   24074.86659732  .00004419  00000-0  29567-3 0  9996,2 53783  53.2191 287.8959 0001399 103.7411 256.3737 15.08823701 83465,6917.93,95.439,540.763,538.827,0.0
53783.0,STARLINK-4536,PAYLOAD,2024-03-14 23:58:40,15.08815658,0.0001641,53.219,287.3009,102.8329,257.2846,0.00041865,6.377e-05,0.0,0 STARLINK-4536,1 53783U 22111L   24074.99908014  .00006377  00000-0  41865-3 0  9990,2 53783  53.2190 287.3009 0001641 102.8329 257.2846 15.08815658 84298,6917.955,95.439,540.955,538.685,0.0
53783.0,STARLINK-4536,PAYLOAD,2024-03-15 23:49:27,15.08839083,0.0001333,53.217,282.8406,89.5443,270.5702,6.361e-05,7.25e-06,0.0,0 STARLINK-4536,1 53783U 22111L   24075.99267555  .00000725  00000-0  63610-4 0  9993,2 53783  53.2170 282.8406 0001333  89.5443 270.5702 15.08839083 83637,6917.883,95.438,540.67,538.826,0.0
53783.0,STARLINK-4536,PAYLOAD,2024-03-16 20:29:28,15.08834722,0.0001168,53.216,278.9741,89.3628,270.7498,4.6215e-05,4.48e-06,0.0,0 STARLINK-4536,1 53783U 22111L   24076.85380045  .00000448  00000-0  46215-4 0  9993,2 53783  53.2160 278.9741 0001168  89.3628 270.7498 15.08834722 84576,6917.897,95.438,540.57,538.954,0.0
53783.0,STARLINK-4536,PAYLOAD,2024-03-16 23:40:14,15.08835033,0.0001168,53.216,278.3791,90.1673,269.9453,4.7672e-05,4.71e-06,0.0,0 STARLINK-4536,1 53783U 22111L   24076.98628055  .00000471  00000-0  47672-4 0  9997,2 53783  53.2160 278.3791 0001168  90.1673 269.9453 15.08835033 83784,6917.896,95.438,540.569,538.953,0.0
53783.0,STARLINK-4536,PAYLOAD,2024-03-17 18:44:53,15.08827441,0.0001243,53.2169,274.809,110.4104,249.7022,1.4265e-05,-6.1e-07,0.0,0 STARLINK-4536,1 53783U 22111L   24077.78116914 -.00000061  00000-0  14265-4 0  9990,2 53783  53.2169 274.8090 0001243 110.4104 249.7022 15.08827441 83901,6917.919,95.438,540.644,538.924,0.0
53783.0,STARLINK-4536,PAYLOAD,2024-03-18 20:11:04,15.08836737,0.0001032,53.216,270.051,96.495,263.6159,-0.00016249,-2.873e-05,0.0,0 STARLINK-4536,1 53783U 22111L   24078.84101890 -.00002873  00000-0 -16249-3 0  9992,2 53783  53.2160 270.0510 0001032  96.4950 263.6159 15.08836737 84067,6917.89,95.438,540.469,539.041,0.0
53783.0,STARLINK-4536,PAYLOAD,2024-03-18 21:46:27,15.0882743,0.0001151,53.2166,269.7547,100.0668,260.0454,3.1623e-05,2.15e-06,0.0,0 STARLINK-4536,1 53783U 22111L   24078.90725948  .00000215  00000-0  31623-4 0  9995,2 53783  53.2166 269.7547 0001151 100.0668 260.0454 15.08827430 84887,6917.919,95.438,540.58,538.988,0.0
53783.0,STARLINK-4536,PAYLOAD,2024-03-19 12:04:54,15.08838794,7.93e-05,53.2157,267.073,126.0834,234.0232,0.00014216,1.975e-05,0.0,0 STARLINK-4536,1 53783U 22111L   24079.50341212  .00001975  00000-0  14216-3 0  9992,2 53783  53.2157 267.0730 0000793 126.0834 234.0232 15.08838794 84976,6917.884,95.438,540.298,539.2,0.0
53783.0,STARLINK-4536,PAYLOAD,2024-03-19 20:01:49,15.08851059,0.0001094,53.2166,265.5956,79.1886,280.9229,0.00035701,5.4e-05,0.0,0 STARLINK-4536,1 53783U 22111L   24079.83460064  .00005400  00000-0  35701-3 0  9994,2 53783  53.2166 265.5956 0001094  79.1886 280.9229 15.08851059 84211,6917.847,95.437,540.468,538.955,0.0
53783.0,STARLINK-4536,PAYLOAD,2024-03-20 11:55:41,15.08858427,9.88e-05,53.2171,262.6227,82.9122,277.1982,0.00011845,1.599e-05,0.0,0 STARLINK-4536,1 53783U 22111L   24080.49700317  .00001599  00000-0  11845-3 0  9994,2 53783  53.2171 262.6227 0000988  82.9122 277.1982 15.08858427 85123,6917.824,95.436,540.373,539.006,0.0
53783.0,STARLINK-4536,PAYLOAD,2024-03-20 18:17:13,15.08851488,8.7e-05,53.2173,261.4273,112.8522,247.2562,9.8639e-05,1.283e-05,0.0,0 STARLINK-4536,1 53783U 22111L   24080.76196464  .00001283  00000-0  98639-4 0  9993,2 53783  53.2173 261.4273 0000870 112.8522 247.2562 15.08851488 84356,6917.845,95.437,540.312,539.108,0.0
53783.0,STARLINK-4536,PAYLOAD,2024-03-21 14:57:14,15.08855138,0.0001155,53.2177,257.5643,115.006,245.1052,-7.0768e-05,-1.414e-05,0.0,0 STARLINK-4536,1 53783U 22111L   24081.62308195 -.00001414  00000-0 -70768-4 0  9996,2 53783  53.2177 257.5643 0001155 115.0060 245.1052 15.08855138 85297,6917.834,95.437,540.498,538.9,0.0
53783.0,STARLINK-4536,PAYLOAD,2024-03-21 18:08:00,15.08855654,0.0001142,53.2182,256.9715,94.9737,265.1385,-4.4767e-05,-1.001e-05,0.0,0 STARLINK-4536,1 53783U 22111L   24081.75556073 -.00001001  00000-0 -44767-4 0  9992,2 53783  53.2182 256.9715 0001142  94.9737 265.1385 15.08855654 85315,6917.833,95.437,540.488,538.908,0.0
53783.0,STARLINK-4536,PAYLOAD,2024-03-22 11:37:14,15.08843451,0.0001211,53.2181,253.7,102.0329,258.0798,0.00010847,1.439e-05,0.0,0 STARLINK-4536,1 53783U 22111L   24082.48419919  .00001439  00000-0  10847-3 0  9994,2 53783  53.2181 253.7000 0001211 102.0329 258.0798 15.08843451 84614,6917.87,95.437,540.573,538.897,0.0
